[Satellite]
VERSION=1.1
NAME=ECHOSTAR 18
NICKNAME=ECHOSTAR 18
TLE1=1 41592U 16039B   17185.38562936 -.00000288  00000-0  00000-0 0  9993
TLE2=2 41592   0.0222   5.6892 0002605  87.9051 266.4355  1.00267305  3842
